ONEWEB-0593             
1 54659U 22166T   23286.18619647 -.00002744  00000+0 -66817-2 0  9997
2 54659  87.9196  78.6815 0001747 104.6370 255.4958 13.21791064 42813
ONEWEB-0594             
1 54660U 22166U   23285.90231954 -.00002872  00000+0 -69923-2 0  9992
2 54660  87.9191  78.7352 0001826  85.5049 274.6294 13.21791007 42324
ONEWEB-0595             
1 54661U 22166V   23286.18224167 -.00012209  00000+0 -29711-1 0  9997
2 54661  87.9190  78.6724 0001217 115.8038 244.3221 13.21649058 42800
ONEWEB-0596             
1 54662U 22166W   23286.15659290  .00002515  00000+0  60538-2 0  9994
2 54662  87.9190  78.6789 0001488 109.8942 250.2352 13.21861687 42804
ONEWEB-0597             
1 54663U 22166X   23285.91058624  .00002974  00000+0  71633-2 0  9999
2 54663  87.9192  78.7288 0001908 102.8499 257.2848 13.21860851 42303
ONEWEB-0600             
1 54664U 22166Y   23286.19486813 -.00011732  00000+0 -28552-1 0  9991
2 54664  87.9195  78.7220 0002061  93.4162 266.7207 13.21642609 42781
ONEWEB-0601             
1 54665U 22166Z   23285.88453491 -.00009029  00000+0 -21945-1 0  9998
2 54665  87.9192  78.7338 0001524 111.1549 248.9748 13.21735062 42462
ONEWEB-0602             
1 54666U 22166AA  23286.15425392  .00010117  00000+0  24378-1 0  9990
2 54666  87.9182  78.6860 0001571 103.5283 256.6026 13.21993098 42812
